{
"type": "FeatureCollection",
"name": "rppn",
"crs": { "type": "name", "properties": { "name": "urn:ogc:def:crs:OGC:1.3:CRS84" } },
"features": [
{ "type": "Feature", "properties": { "gid": 6, "area": "26.99", "nome": "Hercules Florence, glebas 3, 4, 5 e 6", "categoria": "Uso Sustentável", "orgao_gest": "FF", "tipo": "Reserva Particular do Patrimônio Natural", "ato_legal": "Resolução SMA n° 39, de 05/06/2012", "nome_": "RPPN Hercules Florence 3, 4, 5 e 6" }, "geometry": { "type": "Polygon", "coordinates": [ [ [ -46.049325348999965, -23.787704448999936 ], [ -46.056563043999972, -23.789873572999973 ], [ -46.056560979, -23.788747103999984 ], [ -46.056647684999959, -23.78875849199995 ], [ -46.056705555999947, -23.788815165999946 ], [ -46.056738420999977, -23.78898812399996 ], [ -46.056859971999984, -23.788758080999969 ], [ -46.057012346999969, -23.788629408999952 ], [ -46.057102749999963, -23.788607951999946 ], [ -46.057140653999973, -23.788620674999947 ], [ -46.05723726399998, -23.788692933999986 ], [ -46.057546297999977, -23.788748294999955 ], [ -46.057706159999931, -23.788721472999956 ], [ -46.057783759999943, -23.788714925999958 ], [ -46.057781831999932, -23.786916952999949 ], [ -46.057781829999946, -23.786914851999938 ], [ -46.051017580999918, -23.78487978499993 ], [ -46.051016614999973, -23.784883717999939 ], [ -46.050716760999933, -23.786105438999982 ], [ -46.048724933999935, -23.787216798999971 ], [ -46.049325348999965, -23.787704448999936 ] ] ] } },
{ "type": "Feature", "properties": { "gid": 7, "area": "9.49", "nome": "Hercules Florence, glebas 3, 4, 5 e 6", "categoria": "Uso Sustentável", "orgao_gest": "FF", "tipo": "Reserva Particular do Patrimônio Natural", "ato_legal": "Resolução SMA n° 39, de 05/06/2012", "nome_": "RPPN Hercules Florence 3, 4, 5 e 6" }, "geometry": { "type": "Polygon", "coordinates": [ [ [ -46.043060786999938, -23.78249219699995 ], [ -46.048459039999948, -23.786986284999951 ], [ -46.050406554999938, -23.785901643999981 ], [ -46.050524715999977, -23.785385518999938 ], [ -46.04557056799996, -23.784014219999964 ], [ -46.045801156, -23.783308803999947 ], [ -46.045799462999973, -23.783308299999934 ], [ -46.043060786999938, -23.78249219699995 ] ] ] } },
{ "type": "Feature", "properties": { "gid": 8, "area": "34.24", "nome": "Hercules Florence, glebas 3, 4, 5 e 6", "categoria": "Uso Sustentável", "orgao_gest": "FF", "tipo": "Reserva Particular do Patrimônio Natural", "ato_legal": "Resolução SMA n° 39, de 05/06/2012", "nome_": "RPPN Hercules Florence 3, 4, 5 e 6" }, "geometry": { "type": "Polygon", "coordinates": [ [ [ -46.058277037999957, -23.787065773999942 ], [ -46.058274557999944, -23.788180232999931 ], [ -46.058274549999965, -23.788684178999972 ], [ -46.058489596999948, -23.788667425999964 ], [ -46.058872585999943, -23.78852684299995 ], [ -46.058917971999954, -23.788509163999951 ], [ -46.058949830999936, -23.788523720999933 ], [ -46.059040733999943, -23.78866302299997 ], [ -46.059078670999945, -23.788687598999964 ], [ -46.059201644999973, -23.788673794999962 ], [ -46.059424289999974, -23.788516519999977 ], [ -46.059425682999965, -23.788526058999935 ], [ -46.059480582999981, -23.788509701999953 ], [ -46.059525940999933, -23.788638612999939 ], [ -46.059648607999982, -23.78864618799998 ], [ -46.059854446999957, -23.788689209999973 ], [ -46.059920547999972, -23.788669861999953 ], [ -46.060202147, -23.788214365999973 ], [ -46.060454370999942, -23.788147488999989 ], [ -46.060525173999949, -23.788088270999939 ], [ -46.060619755999944, -23.78807719899994 ], [ -46.060980751999985, -23.788072929999945 ], [ -46.06146574099995, -23.788076413999924 ], [ -46.061669059999986, -23.788154826999968 ], [ -46.06196136799997, -23.788238072999949 ], [ -46.062184942999977, -23.788240065999947 ], [ -46.062245463999957, -23.788240597999962 ], [ -46.062481728999941, -23.788159367999985 ], [ -46.062544661999929, -23.788160731999941 ], [ -46.06268566599995, -23.788272573999965 ], [ -46.062771177999949, -23.788320042999953 ], [ -46.062966573999979, -23.788326164999948 ], [ -46.063253740999976, -23.788416606999942 ], [ -46.063348273999971, -23.78850566499996 ], [ -46.063401696999946, -23.788472105999979 ], [ -46.063446993999939, -23.788206990999981 ], [ -46.063503446999952, -23.787829346999956 ], [ -46.063531853999969, -23.787755111999957 ], [ -46.063616073999988, -23.787668298999968 ], [ -46.063744804999949, -23.787608390999949 ], [ -46.063983509999964, -23.78766323699994 ], [ -46.064357143999985, -23.787805652999975 ], [ -46.064378289999965, -23.784133744999966 ], [ -46.062220844999956, -23.783522974999983 ], [ -46.061001437999927, -23.783177742999957 ], [ -46.05876829399994, -23.782545475999939 ], [ -46.058165435999982, -23.78237478999996 ], [ -46.058193137999979, -23.782467687999937 ], [ -46.058217269999936, -23.782562064999979 ], [ -46.058237804999976, -23.782655887999958 ], [ -46.058254718999926, -23.782750954999987 ], [ -46.058267985999962, -23.782846516999943 ], [ -46.058280506999957, -23.782936704999951 ], [ -46.058283536, -23.783038618999978 ], [ -46.058286395999971, -23.783134834999949 ], [ -46.058285795999964, -23.783134922999977 ], [ -46.058277037999957, -23.787065773999942 ] ] ] } },
{ "type": "Feature", "properties": { "gid": 9, "area": "9.23", "nome": "Hercules Florence, glebas 3, 4, 5 e 6", "categoria": "Uso Sustentável", "orgao_gest": "FF", "tipo": "Reserva Particular do Patrimônio Natural", "ato_legal": "Resolução SMA n° 39, de 05/06/2012", "nome_": "RPPN Hercules Florence 3, 4, 5 e 6" }, "geometry": { "type": "Polygon", "coordinates": [ [ [ -46.05581124199994, -23.776464237999967 ], [ -46.055533326999978, -23.776536141999944 ], [ -46.055209349999984, -23.776451698999956 ], [ -46.055041628999973, -23.776699386999958 ], [ -46.054791061999921, -23.776833085999961 ], [ -46.054729960999971, -23.776794134999932 ], [ -46.054468587999978, -23.776681815999957 ], [ -46.053255387999968, -23.778103908999981 ], [ -46.056616824999942, -23.780586301999964 ], [ -46.056642880999945, -23.777010898999944 ], [ -46.056592233999936, -23.777027241999978 ], [ -46.056451551999935, -23.777051115999935 ], [ -46.056259968999925, -23.776984635999952 ], [ -46.056209265999939, -23.776810286999936 ], [ -46.056161946999971, -23.776447352999988 ], [ -46.056095640999963, -23.776423746999971 ], [ -46.055943731999953, -23.776421055999947 ], [ -46.05581124199994, -23.776464237999967 ] ] ] } },
{ "type": "Feature", "properties": { "gid": 10, "area": "134.22", "nome": "Hercules Florence, glebas 3, 4, 5 e 6", "categoria": "Uso Sustentável", "orgao_gest": "FF", "tipo": "Reserva Particular do Patrimônio Natural", "ato_legal": "Resolução SMA n° 39, de 05/06/2012", "nome_": "RPPN Hercules Florence 3, 4, 5 e 6" }, "geometry": { "type": "Polygon", "coordinates": [ [ [ -46.008113737999956, -23.775306755999971 ], [ -46.043708689999953, -23.786012319999941 ], [ -46.045779568999919, -23.785121270999976 ], [ -46.042373810999941, -23.782285661999939 ], [ -46.009103109999941, -23.772278803999935 ], [ -46.008113737999956, -23.775306755999971 ] ] ] } },
{ "type": "Feature", "properties": { "gid": 1, "area": "514.45", "nome": "Ecofuturo", "categoria": "Uso Sustentável", "orgao_gest": "FF", "tipo": "Reserva Particular do Patrimônio Natural", "ato_legal": "Resolução SMA n° 20, de 06/04/2009", "nome_": "RPPN Ecofuturo" }, "geometry": { "type": "Polygon", "coordinates": [ [ [ -46.189007632999967, -23.766057910999962 ], [ -46.188289936999979, -23.766865994999939 ], [ -46.186585001999966, -23.767934155999971 ], [ -46.185031890999923, -23.767377975999985 ], [ -46.183019372999986, -23.768024632999985 ], [ -46.182678343999946, -23.768234647999979 ], [ -46.182621185999935, -23.768370119999926 ], [ -46.182620782999948, -23.76837035199998 ], [ -46.182664812, -23.768765398999964 ], [ -46.182665519999929, -23.768962784999925 ], [ -46.182626008999932, -23.769015037999971 ], [ -46.182457116999956, -23.76912507399993 ], [ -46.182423966999977, -23.769184722999963 ], [ -46.18251187999995, -23.769448331999968 ], [ -46.182555539999946, -23.769682696999944 ], [ -46.182543919999951, -23.769784935999947 ], [ -46.18249100599995, -23.769924282999977 ], [ -46.182502847999942, -23.770041813999963 ], [ -46.18254839899997, -23.77012881599995 ], [ -46.182609405999976, -23.770193154999959 ], [ -46.182853763999951, -23.770362643999942 ], [ -46.182821326999935, -23.770522643999989 ], [ -46.182844997999936, -23.77066198099994 ], [ -46.182914287999928, -23.770787769 ], [ -46.18302243199998, -23.77088768599998 ], [ -46.183129893999933, -23.770942316999935 ], [ -46.183248743999975, -23.770970629999965 ], [ -46.183401915999958, -23.77096649299995 ], [ -46.183529262999969, -23.770926875999987 ], [ -46.183779540999964, -23.770993780999969 ], [ -46.183992702999944, -23.771015582999961 ], [ -46.184504241999932, -23.771339760999986 ], [ -46.184422619999957, -23.771473799999963 ], [ -46.184271504999963, -23.771451514999971 ], [ -46.184149674999951, -23.771465447999962 ], [ -46.184008917999954, -23.771521196999981 ], [ -46.183914170999955, -23.771593046999957 ], [ -46.183841812999944, -23.771684321999949 ], [ -46.183796393999963, -23.771789291999937 ], [ -46.18378076699998, -23.771901357999983 ], [ -46.183795913, -23.772013480999938 ], [ -46.183840886, -23.772118612999989 ], [ -46.183912850999945, -23.772210150999978 ], [ -46.184028681999955, -23.772259769999952 ], [ -46.184098608999932, -23.772410150999981 ], [ -46.184176286999964, -23.77249869099996 ], [ -46.184591612999945, -23.772789308999965 ], [ -46.184933112999929, -23.773134116999934 ], [ -46.185309515999954, -23.773356480999951 ], [ -46.185412322999987, -23.773475136999942 ], [ -46.185515618999929, -23.773649356999954 ], [ -46.185848254999918, -23.774080939999987 ], [ -46.185937349999961, -23.77432145299997 ], [ -46.185963129999948, -23.774481745999932 ], [ -46.185810491999973, -23.774647792999932 ], [ -46.185730436999954, -23.774818606999936 ], [ -46.185760181999967, -23.774827141999943 ], [ -46.185659682999976, -23.775480872999928 ], [ -46.186996174999926, -23.775240638999954 ], [ -46.187121643999944, -23.775388438999986 ], [ -46.187261346999946, -23.775489562999958 ], [ -46.18829092499994, -23.776120447999986 ], [ -46.188403832999931, -23.776232288999957 ], [ -46.188466614999975, -23.77638068199996 ], [ -46.188508182999961, -23.776652941999942 ], [ -46.188495366999987, -23.776806141999955 ], [ -46.188438638999948, -23.777184798999951 ], [ -46.18828377899996, -23.777751281999947 ], [ -46.188238066999986, -23.777875173999973 ], [ -46.187934962999975, -23.77846682499996 ], [ -46.187887383999957, -23.778544619999945 ], [ -46.187848940999963, -23.778571686999967 ], [ -46.187744035999977, -23.778574206999973 ], [ -46.187322519999952, -23.778496208999965 ], [ -46.186910300999955, -23.778348417999961 ], [ -46.18675196099997, -23.778266655999975 ], [ -46.186630039999962, -23.77814701199998 ], [ -46.186450732999958, -23.77774677799993 ], [ -46.186270816999979, -23.777473867999973 ], [ -46.185725118999983, -23.776953244999955 ], [ -46.185640594999938, -23.77689257499998 ], [ -46.185573157999954, -23.776952404999985 ], [ -46.185415946999967, -23.777208193999975 ], [ -46.185228504999927, -23.777610856999967 ], [ -46.185150637999961, -23.777820405999936 ], [ -46.185123217999951, -23.777851604999981 ], [ -46.185006698999985, -23.777868006999935 ], [ -46.184670783999934, -23.777855702999954 ], [ -46.183620157999947, -23.77776555999997 ], [ -46.183487696999983, -23.777770543999974 ], [ -46.183366798999941, -23.777837663999943 ], [ -46.183111387999972, -23.77802754999993 ], [ -46.182978211999966, -23.778200637999941 ], [ -46.18285616199995, -23.778463589999948 ], [ -46.182850574, -23.778506657 ], [ -46.182868441999965, -23.778555353999948 ], [ -46.183063480999969, -23.778821932999964 ], [ -46.183087506999975, -23.778952903999933 ], [ -46.183048973999973, -23.779177718999961 ], [ -46.182875360999944, -23.779586858999949 ], [ -46.182853336999983, -23.779581325999981 ], [ -46.182942012999952, -23.780169293999972 ], [ -46.18324099899997, -23.780283555999969 ], [ -46.183387796999959, -23.780315705999964 ], [ -46.183752667999947, -23.780358602999979 ], [ -46.184295006999953, -23.780523450999965 ], [ -46.185122908, -23.780966323999962 ], [ -46.185373039999952, -23.781045353999961 ], [ -46.18554517899998, -23.781054960999935 ], [ -46.185511038999941, -23.781125168999953 ], [ -46.18531074699996, -23.781414880999939 ], [ -46.18527313699996, -23.781514829999935 ], [ -46.18527965699996, -23.781552588999961 ], [ -46.185312917999973, -23.781597639 ], [ -46.18553598099993, -23.781742459999975 ], [ -46.185583554999937, -23.781745882999932 ], [ -46.185635474999955, -23.781725747999925 ], [ -46.185922366999939, -23.781519848999952 ], [ -46.186187317999931, -23.781234545999954 ], [ -46.186289590999941, -23.781166034999959 ], [ -46.18665224199998, -23.781038272999975 ], [ -46.186773287999976, -23.781050689999965 ], [ -46.186832020999923, -23.781108045999936 ], [ -46.18746096099995, -23.781318451999944 ], [ -46.187520241999948, -23.781372100999938 ], [ -46.18754057499995, -23.781453101999951 ], [ -46.187531841999949, -23.781570396999935 ], [ -46.187444967999959, -23.781715344999963 ], [ -46.187192914999976, -23.782014861999983 ], [ -46.186494228999941, -23.78276868799998 ], [ -46.186301125999911, -23.783085785999955 ], [ -46.186137661999958, -23.783429707999975 ], [ -46.185876703999952, -23.783828483999976 ], [ -46.185880630999975, -23.784261293999982 ], [ -46.185848797999938, -23.784313483999941 ], [ -46.185990703999948, -23.784512938999967 ], [ -46.18599765799997, -23.785279374999959 ], [ -46.186586470999934, -23.785374041999955 ], [ -46.187158062999956, -23.785730347999969 ], [ -46.188381775999979, -23.786676786999969 ], [ -46.189236717999947, -23.786940727999941 ], [ -46.190086299999955, -23.787691649999939 ], [ -46.191328415999976, -23.788502659999956 ], [ -46.19207764599998, -23.78899283699997 ], [ -46.193102235999959, -23.789589091999975 ], [ -46.194034608999964, -23.789744195999958 ], [ -46.195225547999947, -23.790312096999966 ], [ -46.195479854999974, -23.790568935999946 ], [ -46.195502225999981, -23.790562443999931 ], [ -46.195709075999972, -23.79067806899997 ], [ -46.196170779999939, -23.790800735999948 ], [ -46.196387181999945, -23.790889232999984 ], [ -46.196495382999956, -23.790933481999961 ], [ -46.196926948999938, -23.790975221999926 ], [ -46.197379764999923, -23.791197146999941 ], [ -46.197982790999966, -23.79176958599993 ], [ -46.198249678999943, -23.792020002999948 ], [ -46.199407781999973, -23.792209390999968 ], [ -46.19991001599994, -23.792476010999962 ], [ -46.200233466999983, -23.792482512999985 ], [ -46.200761702999934, -23.792379211999972 ], [ -46.200947221999968, -23.792305627999951 ], [ -46.201140466999952, -23.792006546999982 ], [ -46.201116558999949, -23.791537824999981 ], [ -46.201179432999929, -23.790915128999934 ], [ -46.201245207999918, -23.790608022999951 ], [ -46.20140988199995, -23.790399338999972 ], [ -46.201416530999936, -23.790056622999948 ], [ -46.201277191999964, -23.789823252999955 ], [ -46.201079226999973, -23.789608374999947 ], [ -46.200939225999932, -23.789302869999979 ], [ -46.200976846999943, -23.789131244999968 ], [ -46.201229543999936, -23.788903840999978 ], [ -46.201491622999974, -23.788631276999983 ], [ -46.201566945999971, -23.788297042999954 ], [ -46.201596175999967, -23.788278780999978 ], [ -46.201793559999949, -23.788430540999975 ], [ -46.202115176999946, -23.788238668999963 ], [ -46.202310569999945, -23.788174024999932 ], [ -46.202466270999935, -23.788055584999945 ], [ -46.203180495999945, -23.787932790999939 ], [ -46.203513235999921, -23.787885109999937 ], [ -46.203942384999948, -23.787665342999965 ], [ -46.204125734999927, -23.787357317999973 ], [ -46.204310828999944, -23.787238646999977 ], [ -46.204467523999952, -23.78722840699994 ], [ -46.204817697999943, -23.786946131999983 ], [ -46.205372392999941, -23.786526996999957 ], [ -46.205988953999963, -23.786441023999934 ], [ -46.206117083999963, -23.786521179999969 ], [ -46.206373677999963, -23.78671755899996 ], [ -46.206491926999952, -23.786788773999941 ], [ -46.206684151999966, -23.786381484999936 ], [ -46.20648302099994, -23.785823973999989 ], [ -46.206490239999937, -23.785544375999972 ], [ -46.206418237999976, -23.785175222999953 ], [ -46.206641854999916, -23.784984107999946 ], [ -46.206835409999933, -23.784721087999976 ], [ -46.207087421999965, -23.784421540999968 ], [ -46.207134664999955, -23.784231803999948 ], [ -46.207367077999947, -23.783932409999984 ], [ -46.207456928999939, -23.78411205599998 ], [ -46.207661944999977, -23.784029295 ], [ -46.207896522999924, -23.783964337999979 ], [ -46.208052046999946, -23.783827857999931 ], [ -46.208134565999963, -23.783214023999971 ], [ -46.208034499999918, -23.782989370999928 ], [ -46.207711655999937, -23.783046001999946 ], [ -46.207288496999972, -23.782850927999963 ], [ -46.207118012999942, -23.78242843999994 ], [ -46.206902201999966, -23.782403074999934 ], [ -46.206576861999956, -23.782189198999959 ], [ -46.206407129999945, -23.781847860999967 ], [ -46.20608162599995, -23.781615949999946 ], [ -46.20611832299992, -23.781345138999949 ], [ -46.206684536999958, -23.781115276999969 ], [ -46.207488818999913, -23.781199162999954 ], [ -46.20751779699998, -23.781153848999967 ], [ -46.20748582099997, -23.780874556999954 ], [ -46.207848518999974, -23.780889754999961 ], [ -46.208328043999977, -23.78082287999996 ], [ -46.208522922999975, -23.780704126999982 ], [ -46.208588258999953, -23.780351933999963 ], [ -46.208440870999944, -23.78030800099998 ], [ -46.208147344999986, -23.780355384999947 ], [ -46.207752505999956, -23.780042862999942 ], [ -46.207613583999944, -23.779854582999974 ], [ -46.207661824999938, -23.779773047999988 ], [ -46.207886513999938, -23.779699150999928 ], [ -46.208265720999968, -23.779380571999976 ], [ -46.208478943999985, -23.779126412999982 ], [ -46.208624663999956, -23.778990009999966 ], [ -46.208398642999967, -23.77891963999997 ], [ -46.208072976999972, -23.778669698999977 ], [ -46.20774597999997, -23.778275488999945 ], [ -46.207537724999938, -23.778006592999937 ], [ -46.207034201999932, -23.777595726999941 ], [ -46.206797470999945, -23.777426244999958 ], [ -46.206423237999942, -23.777221767999958 ], [ -46.206165083999977, -23.776854067999981 ], [ -46.206153705999938, -23.776682824999956 ], [ -46.205984398999917, -23.776386570999922 ], [ -46.205502227999943, -23.776164898999983 ], [ -46.205038490999982, -23.775816836999983 ], [ -46.204817208999934, -23.775196356999967 ], [ -46.204819861999951, -23.774420831999969 ], [ -46.204686097999961, -23.773727529999977 ], [ -46.204409189999978, -23.773450147999942 ], [ -46.204256746999938, -23.772856181999952 ], [ -46.204136934999937, -23.772613643999936 ], [ -46.204032484999978, -23.771911093999964 ], [ -46.203929115999976, -23.771325762999943 ], [ -46.203614352999985, -23.77119295399995 ], [ -46.202488062999954, -23.771246815999969 ], [ -46.202370493999965, -23.771247731999946 ], [ -46.202272850999968, -23.771284561999959 ], [ -46.201930106999932, -23.77130526499997 ], [ -46.201626799999971, -23.771352712999942 ], [ -46.201421467999964, -23.771399397999971 ], [ -46.201264708999972, -23.771400617999983 ], [ -46.201225683999951, -23.771418956999984 ], [ -46.201215969999957, -23.771428049999948 ], [ -46.200880124999969, -23.771133083999924 ], [ -46.20081993299992, -23.770980254999941 ], [ -46.200571934999964, -23.77064853499996 ], [ -46.200216249999983, -23.770326669999978 ], [ -46.199643950999977, -23.769889258999964 ], [ -46.198903860999955, -23.769317885999961 ], [ -46.198342109999949, -23.768961545999957 ], [ -46.198269812999982, -23.768556318999963 ], [ -46.19839478199998, -23.768293841999935 ], [ -46.198655836999933, -23.767913079999978 ], [ -46.199093404999978, -23.767548983 ], [ -46.199294516999935, -23.767042440999951 ], [ -46.19892161199995, -23.765909129999958 ], [ -46.19865403499994, -23.765577558999958 ], [ -46.197512156999949, -23.766064344999965 ], [ -46.196353134999967, -23.76574869599995 ], [ -46.195576111999962, -23.764347979999968 ], [ -46.193454213999978, -23.763733163999973 ], [ -46.191217152999975, -23.76338071399994 ], [ -46.189752169999942, -23.764970072999972 ], [ -46.189007632999967, -23.766057910999962 ] ] ] } },
{ "type": "Feature", "properties": { "gid": 2, "area": "297.07", "nome": "Costa Blanca", "categoria": "Uso Sustentável", "orgao_gest": "FF", "tipo": "Reserva Particular do Patrimônio Natural", "ato_legal": "Resolução SMA n° 07, de 01/02/2011", "nome_": "RPPN Costa Blanca" }, "geometry": { "type": "Polygon", "coordinates": [ [ [ -46.000431186999961, -23.736451862999974 ], [ -45.997554937999965, -23.772778336999981 ], [ -45.997797834999979, -23.772831228999962 ], [ -46.001967233999956, -23.773931108999935 ], [ -46.002968780999922, -23.774233126999953 ], [ -46.009803412999979, -23.741058760999984 ], [ -46.009532029999946, -23.741427217999963 ], [ -46.009258690999957, -23.741542169999949 ], [ -46.009011961999924, -23.741430613999967 ], [ -46.008782759999953, -23.741136142999952 ], [ -46.008689976999953, -23.740745135999934 ], [ -46.008721849999972, -23.739978952999934 ], [ -46.008663200999926, -23.739726900999987 ], [ -46.008357492999949, -23.739319851999937 ], [ -46.007616883999951, -23.738915546999969 ], [ -46.007162310999938, -23.738822773999964 ], [ -46.00710701099996, -23.73900593499997 ], [ -46.007348768999982, -23.739709370999947 ], [ -46.007167237999973, -23.740076154999937 ], [ -46.006902679999939, -23.740095218999965 ], [ -46.006177363999932, -23.739229560999949 ], [ -46.005902921999969, -23.739187813999941 ], [ -46.005717715999921, -23.739702558999976 ], [ -46.005679181999938, -23.740843056999964 ], [ -46.005303716999933, -23.741202339999962 ], [ -46.004378539999934, -23.741230751999986 ], [ -46.003109624999979, -23.74054815999995 ], [ -46.001713919999986, -23.737909486999975 ], [ -46.001609663999936, -23.736630645999977 ], [ -46.001232456999951, -23.736145649999973 ], [ -46.000892035999989, -23.73614785399997 ], [ -46.000431186999961, -23.736451862999974 ] ] ] } },
{ "type": "Feature", "properties": { "gid": 3, "area": "41.15", "nome": "Hercules Florence 1 e Hercules Florence 2", "categoria": "Uso Sustentável", "orgao_gest": "FF", "tipo": "Reserva Particular do Patrimônio Natural", "ato_legal": "Resolução SMA n° 06, de 01/02/2011", "nome_": "RPPN Hercules Florence 1 e 2" }, "geometry": { "type": "Polygon", "coordinates": [ [ [ -46.057781831999932, -23.786916952999949 ], [ -46.057786677999943, -23.786918408999959 ], [ -46.05779505999994, -23.783136742999943 ], [ -46.057792469999988, -23.783041062999928 ], [ -46.057785523999954, -23.782945565999974 ], [ -46.057774252999927, -23.782850414999928 ], [ -46.057758657999948, -23.782755790999943 ], [ -46.057738779999966, -23.782661845999954 ], [ -46.057714658999934, -23.782568741999974 ], [ -46.057686315999952, -23.782476652999957 ], [ -46.057653811999948, -23.782385737999974 ], [ -46.057617215999969, -23.782296152999958 ], [ -46.057576569999988, -23.782208048999966 ], [ -46.056606836999961, -23.781933474999963 ], [ -46.056612628999972, -23.78116254999998 ], [ -46.052573525999932, -23.778179266999928 ], [ -46.050992088999976, -23.784876346999969 ], [ -46.051016614999973, -23.784883717999939 ], [ -46.057781831999932, -23.786916952999949 ] ] ] } },
{ "type": "Feature", "properties": { "gid": 4, "area": "35", "nome": "Hercules Florence 1 e Hercules Florence 2", "categoria": "Uso Sustentável", "orgao_gest": "FF", "tipo": "Reserva Particular do Patrimônio Natural", "ato_legal": "Resolução SMA n° 06, de 01/02/2011", "nome_": "RPPN Hercules Florence 1 e 2" }, "geometry": { "type": "Polygon", "coordinates": [ [ [ -46.043060786999938, -23.78249219699995 ], [ -46.045797337999943, -23.783314852999986 ], [ -46.045799462999973, -23.783308299999934 ], [ -46.048421882999939, -23.775220017999974 ], [ -46.037685033999942, -23.767277277999945 ], [ -46.036946468999979, -23.766546769999941 ], [ -46.036238016999953, -23.767249592999974 ], [ -46.047736183, -23.775755635999932 ], [ -46.041989844999932, -23.781600564999973 ], [ -46.043060786999938, -23.78249219699995 ] ] ] } },
{ "type": "Feature", "properties": { "gid": 5, "area": "633.85", "nome": "Hercules Florence 1 e Hercules Florence 2", "categoria": "Uso Sustentável", "orgao_gest": "FF", "tipo": "Reserva Particular do Patrimônio Natural", "ato_legal": "Resolução SMA n° 06, de 01/02/2011", "nome_": "RPPN Hercules Florence 1 e 2" }, "geometry": { "type": "Polygon", "coordinates": [ [ [ -46.023283184999954, -23.742982705999978 ], [ -46.023027611999964, -23.743053245999935 ], [ -46.022496384999961, -23.742987632999927 ], [ -46.022343566999936, -23.743004448999958 ], [ -46.022245596999937, -23.743046678999981 ], [ -46.021438088999957, -23.743687625999943 ], [ -46.021119902999942, -23.744037156999969 ], [ -46.020861103999948, -23.744250738999938 ], [ -46.020120677999955, -23.744455208999973 ], [ -46.019723820999943, -23.744769824999931 ], [ -46.019320394999944, -23.745025976999955 ], [ -46.01895770499992, -23.745071520999943 ], [ -46.018657845999932, -23.745019849999956 ], [ -46.018451018999933, -23.744931338999955 ], [ -46.01820400899993, -23.74472866199995 ], [ -46.018139174999924, -23.744617728999962 ], [ -46.009103109999941, -23.772278803999935 ], [ -46.042373810999941, -23.782285661999939 ], [ -46.030579633999928, -23.772464323999955 ], [ -46.030779883999969, -23.772265683999937 ], [ -46.023590269999936, -23.766277503999969 ], [ -46.028363554999949, -23.761423101999984 ], [ -46.036008005999975, -23.767079589999977 ], [ -46.036790453999977, -23.766303179999962 ], [ -46.036539063999946, -23.764119407999939 ], [ -46.038559257999964, -23.757841169999946 ], [ -46.036512935999951, -23.75728334899998 ], [ -46.035685702999949, -23.756938479999985 ], [ -46.034119494999963, -23.756070296999955 ], [ -46.033019266999972, -23.755433035999939 ], [ -46.031554469999953, -23.754569422999975 ], [ -46.027546455999989, -23.750831232999936 ], [ -46.024112694999978, -23.747227572999986 ], [ -46.02348380799998, -23.74560062899997 ], [ -46.023065732999967, -23.744272252999966 ], [ -46.023505416, -23.742835012999933 ], [ -46.023283184999954, -23.742982705999978 ] ] ] } }
]
}
